O3B MPOWER F1           
1 54755U 22174A   24154.23788796 -.00000016  00000+0  00000+0 0  9994
2 54755   0.0628 357.1106 0006839  77.0359  84.4379  5.00114295 28084
